FLOCK 4H-20             
1 66723U 25276BK  26120.62071579  .00007724  00000+0  35541-3 0  9994
2 66723  97.4233 195.2430 0004222 106.4765 253.6935 15.20597449 22460
FLOCK 4H-21             
1 66724U 25276BL  26120.63227233  .00006349  00000+0  29574-3 0  9997
2 66724  97.4199 195.1569 0004084 107.0328 253.1355 15.20246584 22464
FLOCK 4H-22             
1 66725U 25276BM  26120.45033816  .00006719  00000+0  31886-3 0  9990
2 66725  97.4189 194.7656 0003039 163.6802 196.4532 15.19578124 23171
FLOCK 4H-23             
1 66726U 25276BN  26120.48303087  .00007179  00000+0  34428-3 0  9990
2 66726  97.4256 194.8612 0005463 147.8143 212.3426 15.19181797 23171
FLOCK 4H-24             
1 66727U 25276BP  26120.60457721  .00006766  00000+0  32380-3 0  9996
2 66727  97.4253 195.0022 0004625 158.9385 201.2041 15.19279025 23191
FLOCK 4H-25             
1 66728U 25276BQ  26120.51459829  .00006073  00000+0  28395-3 0  9990
2 66728  97.4211 195.0316 0002236  97.5712 262.5777 15.20138410 22470
FLOCK 4H-26             
1 66729U 25276BR  26120.62518165  .00006636  00000+0  31982-3 0  9993
2 66729  97.4209 194.8791 0005551 159.5495 200.5963 15.19039948 23195
FLOCK 4H-27             
1 66730U 25276BS  26120.46885216  .00006708  00000+0  31575-3 0  9999
2 66730  97.4184 194.8892 0002332 108.7581 251.3907 15.19866521 23183
FLOCK 4H-28             
1 66731U 25276BT  26120.16244724  .00006857  00000+0  32991-3 0  9998
2 66731  97.4192 194.4039 0005094 162.5949 197.5461 15.19088936 23122
FLOCK 4H-29             
1 66732U 25276BU  26120.47980288  .00006848  00000+0  32862-3 0  9992
2 66732  97.4189 194.7240 0003768 164.6295 195.5055 15.19182826 23174
FLOCK 4H-30             
1 66733U 25276BV  26120.47706633  .00007083  00000+0  33895-3 0  9992
2 66733  97.4249 194.8552 0004950 159.2582 200.8854 15.19265245 23176
FLOCK 4H-31             
1 66734U 25276BW  26120.48794014  .00006803  00000+0  32739-3 0  9999
2 66734  97.4184 194.7113 0004258 163.5412 196.5961 15.19084866 23176
FLOCK 4H-32             
1 66735U 25276BX  26120.48161880  .00006956  00000+0  33365-3 0  9994
2 66735  97.4239 194.8330 0005407 157.4453 202.7020 15.19186880 23179
FLOCK 4H-33             
1 66736U 25276BY  26120.16850684  .00006352  00000+0  29467-3 0  9995
2 66736  97.4237 194.7878 0003854 102.8448 257.3218 15.20385639 23143
FLOCK 4H-34             
1 66737U 25276BZ  26120.46378101  .00006814  00000+0  32019-3 0  9998
2 66737  97.4255 195.0336 0004071 107.8904 252.2776 15.19914222 22439
FLOCK 4H-35             
1 66738U 25276CA  26120.51358881  .00005871  00000+0  27452-3 0  9995
2 66738  97.4215 195.0423 0003533  98.7413 261.4223 15.20144870 22488
FLOCK 4H-36             
1 66739U 25276CB  26120.60598857  .00006253  00000+0  29447-3 0  9996
2 66739  97.4262 195.1674 0004130 115.5422 244.6240 15.19874009 23207
